STARLINK-31691          
1 59856U 24097X   24308.05692764  .00004277  00000+0  10964-3 0  9993
2 59856  43.0022 185.0539 0001412 254.4777 105.5924 15.40688214 26565
STARLINK-31569          
1 59857U 24097Y   24308.35209054  .00002874  00000+0  76039-4 0  9990
2 59857  43.0034 183.8373 0001651 285.8652  74.2022 15.40701524 26602
STARLINK-31654          
1 59858U 24098A   24307.99174664  .00003193  00000+0  83674-4 0  9997
2 59858  43.0009 195.0789 0001828 284.3630  75.7023 15.40696348 26409
STARLINK-31442          
1 59859U 24098B   24307.96024024  .00004138  00000+0  10626-3 0  9995
2 59859  42.9980 193.9535 0001508 309.2490  50.8233 15.40700632 26429
STARLINK-31651          
1 59860U 24098C   24308.10572838 -.00001885  00000+0 -37884-4 0  9999
2 59860  43.0075 194.2067 0000829 328.9238  31.1570 15.40702563 25739
STARLINK-31584          
1 59862U 24098E   24308.11466897  .00000225  00000+0  12657-4 0  9995
2 59862  43.0100 194.2753 0002345 254.3631 105.6967 15.40722333 25628
STARLINK-31950          
1 59863U 24098F   24307.96934399 -.00000287  00000+0  39619-6 0  9993
2 59863  42.9994 194.9018 0001605 251.2893 108.7789 15.40698470 26411
STARLINK-31931          
1 59864U 24098G   24308.08108437 -.00002125  00000+0 -43610-4 0  9992
2 59864  43.0038 194.0127 0002670 241.6271 118.4316 15.40690498 25786
STARLINK-31938          
1 59865U 24098H   24308.06762731  .00004206  00000+0  10791-3 0  9997
2 59865  43.0049 193.9144 0001650 274.6932  85.3737 15.40693472 26430
STARLINK-31941          
1 59866U 24098J   24308.58334491  .00344494  00000+0  58286-2 0  9999
2 59866  42.9998 182.3215 0011471 256.0175 354.6296 15.49516314  5862
STARLINK-31952          
1 59867U 24098K   24308.09449500  .00005700  00000+0  14344-3 0  9996
2 59867  43.0040 194.1211 0002131 273.7696  86.2916 15.40738085 25789
STARLINK-31921          
1 59868U 24098L   24308.31512682 -.00000650  00000+0 -82886-5 0  9993
2 59868  43.0034 159.3540 0002179 266.2955  93.7653 15.40705858 26849
STARLINK-31760          
1 59869U 24098M   24308.40961977  .00010643  00000+0  26107-3 0  9992
2 59869  43.0045 192.1838 0002352 277.5254  82.5335 15.40770546 26486
STARLINK-31945          
1 59870U 24098N   24307.98950164 -.00001684  00000+0 -33031-4 0  9994
2 59870  42.9985 195.0581 0002986 271.6997  88.3518 15.40704897 26414
