[
	{
		"OBJECT_NAME": "STARLINK-31691",
		"OBJECT_ID": "2024-097X",
		"EPOCH": "2024-11-03T01:21:58.548096",
		"MEAN_MOTION": 15.40688214,
		"ECCENTRICITY": 0.0001412,
		"INCLINATION": 43.0022,
		"RA_OF_ASC_NODE": 185.0539,
		"ARG_OF_PERICENTER": 254.4777,
		"MEAN_ANOMALY": 105.5924,
		"EPHEMERIS_TYPE": 0,
		"CLASSIFICATION_TYPE": "U",
		"NORAD_CAT_ID": 59856,
		"ELEMENT_SET_NO": 999,
		"REV_AT_EPOCH": 2656,
		"BSTAR": 0.00010964,
		"MEAN_MOTION_DOT": 4.277e-5,
		"MEAN_MOTION_DDOT": 0
	},
	{
		"OBJECT_NAME": "STARLINK-31569",
		"OBJECT_ID": "2024-097Y",
		"EPOCH": "2024-11-03T08:27:00.622656",
		"MEAN_MOTION": 15.40701524,
		"ECCENTRICITY": 0.0001651,
		"INCLINATION": 43.0034,
		"RA_OF_ASC_NODE": 183.8373,
		"ARG_OF_PERICENTER": 285.8652,
		"MEAN_ANOMALY": 74.2022,
		"EPHEMERIS_TYPE": 0,
		"CLASSIFICATION_TYPE": "U",
		"NORAD_CAT_ID": 59857,
		"ELEMENT_SET_NO": 999,
		"REV_AT_EPOCH": 2660,
		"BSTAR": 7.6039e-5,
		"MEAN_MOTION_DOT": 2.874e-5,
		"MEAN_MOTION_DDOT": 0
	},
	{
		"OBJECT_NAME": "STARLINK-31654",
		"OBJECT_ID": "2024-098A",
		"EPOCH": "2024-11-02T23:48:06.909696",
		"MEAN_MOTION": 15.40696348,
		"ECCENTRICITY": 0.0001828,
		"INCLINATION": 43.0009,
		"RA_OF_ASC_NODE": 195.0789,
		"ARG_OF_PERICENTER": 284.363,
		"MEAN_ANOMALY": 75.7023,
		"EPHEMERIS_TYPE": 0,
		"CLASSIFICATION_TYPE": "U",
		"NORAD_CAT_ID": 59858,
		"ELEMENT_SET_NO": 999,
		"REV_AT_EPOCH": 2640,
		"BSTAR": 8.3674e-5,
		"MEAN_MOTION_DOT": 3.193e-5,
		"MEAN_MOTION_DDOT": 0
	},
	{
		"OBJECT_NAME": "STARLINK-31442",
		"OBJECT_ID": "2024-098B",
		"EPOCH": "2024-11-02T23:02:44.756736",
		"MEAN_MOTION": 15.40700632,
		"ECCENTRICITY": 0.0001508,
		"INCLINATION": 42.998,
		"RA_OF_ASC_NODE": 193.9535,
		"ARG_OF_PERICENTER": 309.249,
		"MEAN_ANOMALY": 50.8233,
		"EPHEMERIS_TYPE": 0,
		"CLASSIFICATION_TYPE": "U",
		"NORAD_CAT_ID": 59859,
		"ELEMENT_SET_NO": 999,
		"REV_AT_EPOCH": 2642,
		"BSTAR": 0.00010626,
		"MEAN_MOTION_DOT": 4.138e-5,
		"MEAN_MOTION_DDOT": 0
	},
	{
		"OBJECT_NAME": "STARLINK-31651",
		"OBJECT_ID": "2024-098C",
		"EPOCH": "2024-11-03T02:32:14.932032",
		"MEAN_MOTION": 15.40702563,
		"ECCENTRICITY": 8.29e-5,
		"INCLINATION": 43.0075,
		"RA_OF_ASC_NODE": 194.2067,
		"ARG_OF_PERICENTER": 328.9238,
		"MEAN_ANOMALY": 31.157,
		"EPHEMERIS_TYPE": 0,
		"CLASSIFICATION_TYPE": "U",
		"NORAD_CAT_ID": 59860,
		"ELEMENT_SET_NO": 999,
		"REV_AT_EPOCH": 2573,
		"BSTAR": -3.7884e-5,
		"MEAN_MOTION_DOT": -1.885e-5,
		"MEAN_MOTION_DDOT": 0
	},
	{
		"OBJECT_NAME": "STARLINK-31584",
		"OBJECT_ID": "2024-098E",
		"EPOCH": "2024-11-03T02:45:07.399008",
		"MEAN_MOTION": 15.40722333,
		"ECCENTRICITY": 0.0002345,
		"INCLINATION": 43.01,
		"RA_OF_ASC_NODE": 194.2753,
		"ARG_OF_PERICENTER": 254.3631,
		"MEAN_ANOMALY": 105.6967,
		"EPHEMERIS_TYPE": 0,
		"CLASSIFICATION_TYPE": "U",
		"NORAD_CAT_ID": 59862,
		"ELEMENT_SET_NO": 999,
		"REV_AT_EPOCH": 2562,
		"BSTAR": 1.2657e-5,
		"MEAN_MOTION_DOT": 2.25e-6,
		"MEAN_MOTION_DDOT": 0
	},
	{
		"OBJECT_NAME": "STARLINK-31950",
		"OBJECT_ID": "2024-098F",
		"EPOCH": "2024-11-02T23:15:51.320736",
		"MEAN_MOTION": 15.4069847,
		"ECCENTRICITY": 0.0001605,
		"INCLINATION": 42.9994,
		"RA_OF_ASC_NODE": 194.9018,
		"ARG_OF_PERICENTER": 251.2893,
		"MEAN_ANOMALY": 108.7789,
		"EPHEMERIS_TYPE": 0,
		"CLASSIFICATION_TYPE": "U",
		"NORAD_CAT_ID": 59863,
		"ELEMENT_SET_NO": 999,
		"REV_AT_EPOCH": 2641,
		"BSTAR": 3.9619e-7,
		"MEAN_MOTION_DOT": -2.87e-6,
		"MEAN_MOTION_DDOT": 0
	},
	{
		"OBJECT_NAME": "STARLINK-31931",
		"OBJECT_ID": "2024-098G",
		"EPOCH": "2024-11-03T01:56:45.689568",
		"MEAN_MOTION": 15.40690498,
		"ECCENTRICITY": 0.000267,
		"INCLINATION": 43.0038,
		"RA_OF_ASC_NODE": 194.0127,
		"ARG_OF_PERICENTER": 241.6271,
		"MEAN_ANOMALY": 118.4316,
		"EPHEMERIS_TYPE": 0,
		"CLASSIFICATION_TYPE": "U",
		"NORAD_CAT_ID": 59864,
		"ELEMENT_SET_NO": 999,
		"REV_AT_EPOCH": 2578,
		"BSTAR": -4.361e-5,
		"MEAN_MOTION_DOT": -2.125e-5,
		"MEAN_MOTION_DDOT": 0
	},
	{
		"OBJECT_NAME": "STARLINK-31938",
		"OBJECT_ID": "2024-098H",
		"EPOCH": "2024-11-03T01:37:22.999584",
		"MEAN_MOTION": 15.40693472,
		"ECCENTRICITY": 0.000165,
		"INCLINATION": 43.0049,
		"RA_OF_ASC_NODE": 193.9144,
		"ARG_OF_PERICENTER": 274.6932,
		"MEAN_ANOMALY": 85.3737,
		"EPHEMERIS_TYPE": 0,
		"CLASSIFICATION_TYPE": "U",
		"NORAD_CAT_ID": 59865,
		"ELEMENT_SET_NO": 999,
		"REV_AT_EPOCH": 2643,
		"BSTAR": 0.00010791,
		"MEAN_MOTION_DOT": 4.206e-5,
		"MEAN_MOTION_DDOT": 0
	},
	{
		"OBJECT_NAME": "STARLINK-31941",
		"OBJECT_ID": "2024-098J",
		"EPOCH": "2024-11-03T14:00:01.000224",
		"MEAN_MOTION": 15.49516314,
		"ECCENTRICITY": 0.0011471,
		"INCLINATION": 42.9998,
		"RA_OF_ASC_NODE": 182.3215,
		"ARG_OF_PERICENTER": 256.0175,
		"MEAN_ANOMALY": 354.6296,
		"EPHEMERIS_TYPE": 0,
		"CLASSIFICATION_TYPE": "U",
		"NORAD_CAT_ID": 59866,
		"ELEMENT_SET_NO": 999,
		"REV_AT_EPOCH": 586,
		"BSTAR": 0.0058286,
		"MEAN_MOTION_DOT": 0.00344494,
		"MEAN_MOTION_DDOT": 0
	},
	{
		"OBJECT_NAME": "STARLINK-31952",
		"OBJECT_ID": "2024-098K",
		"EPOCH": "2024-11-03T02:16:04.368000",
		"MEAN_MOTION": 15.40738085,
		"ECCENTRICITY": 0.0002131,
		"INCLINATION": 43.004,
		"RA_OF_ASC_NODE": 194.1211,
		"ARG_OF_PERICENTER": 273.7696,
		"MEAN_ANOMALY": 86.2916,
		"EPHEMERIS_TYPE": 0,
		"CLASSIFICATION_TYPE": "U",
		"NORAD_CAT_ID": 59867,
		"ELEMENT_SET_NO": 999,
		"REV_AT_EPOCH": 2578,
		"BSTAR": 0.00014344,
		"MEAN_MOTION_DOT": 5.7e-5,
		"MEAN_MOTION_DDOT": 0
	},
	{
		"OBJECT_NAME": "STARLINK-31921",
		"OBJECT_ID": "2024-098L",
		"EPOCH": "2024-11-03T07:33:46.957248",
		"MEAN_MOTION": 15.40705858,
		"ECCENTRICITY": 0.0002179,
		"INCLINATION": 43.0034,
		"RA_OF_ASC_NODE": 159.354,
		"ARG_OF_PERICENTER": 266.2955,
		"MEAN_ANOMALY": 93.7653,
		"EPHEMERIS_TYPE": 0,
		"CLASSIFICATION_TYPE": "U",
		"NORAD_CAT_ID": 59868,
		"ELEMENT_SET_NO": 999,
		"REV_AT_EPOCH": 2684,
		"BSTAR": -8.2886e-6,
		"MEAN_MOTION_DOT": -6.5e-6,
		"MEAN_MOTION_DDOT": 0
	},
	{
		"OBJECT_NAME": "STARLINK-31760",
		"OBJECT_ID": "2024-098M",
		"EPOCH": "2024-11-03T09:49:51.148128",
		"MEAN_MOTION": 15.40770546,
		"ECCENTRICITY": 0.0002352,
		"INCLINATION": 43.0045,
		"RA_OF_ASC_NODE": 192.1838,
		"ARG_OF_PERICENTER": 277.5254,
		"MEAN_ANOMALY": 82.5335,
		"EPHEMERIS_TYPE": 0,
		"CLASSIFICATION_TYPE": "U",
		"NORAD_CAT_ID": 59869,
		"ELEMENT_SET_NO": 999,
		"REV_AT_EPOCH": 2648,
		"BSTAR": 0.00026107,
		"MEAN_MOTION_DOT": 0.00010643,
		"MEAN_MOTION_DDOT": 0
	},
	{
		"OBJECT_NAME": "STARLINK-31945",
		"OBJECT_ID": "2024-098N",
		"EPOCH": "2024-11-02T23:44:52.941696",
		"MEAN_MOTION": 15.40704897,
		"ECCENTRICITY": 0.0002986,
		"INCLINATION": 42.9985,
		"RA_OF_ASC_NODE": 195.0581,
		"ARG_OF_PERICENTER": 271.6997,
		"MEAN_ANOMALY": 88.3518,
		"EPHEMERIS_TYPE": 0,
		"CLASSIFICATION_TYPE": "U",
		"NORAD_CAT_ID": 59870,
		"ELEMENT_SET_NO": 999,
		"REV_AT_EPOCH": 2641,
		"BSTAR": -3.3031e-5,
		"MEAN_MOTION_DOT": -1.684e-5,
		"MEAN_MOTION_DDOT": 0
	}
]
